NORAD_CAT_ID,OBJECT_NAME,OBJECT_TYPE,EPOCH,MEAN_MOTION,ECCENTRICITY,INCLINATION,RA_OF_ASC_NODE,ARG_OF_PERICENTER,MEAN_ANOMALY,BSTAR,MEAN_MOTION_DOT,MEAN_MOTION_DDOT,TLE_LINE0,TLE_LINE1,TLE_LINE2,SEMIMAJOR_AXIS,PERIOD,APOGEE,PERIGEE,DECAYED
53636.0,STARLINK-4586,PAYLOAD,2023-09-15 04:00:56,15.08823727,0.0001267,53.22,333.483,112.169,247.9437,-8.2772e-05,-1.604e-05,0.0,0 STARLINK-4586,1 53636U 22104BA  23258.16732161 -.00001604  00000-0 -82772-4 0  9992,2 53636  53.2200 333.4830 0001267 112.1690 247.9437 15.08823727 58357,6917.93,95.439,540.672,538.919,0.0
53636.0,STARLINK-4586,PAYLOAD,2023-09-15 10:22:28,15.08831222,0.0001243,53.2196,332.2979,83.2065,276.9068,2.8156e-05,1.6e-06,0.0,0 STARLINK-4586,1 53636U 22104BA  23258.43227553  .00000160  00000-0  28156-4 0  9996,2 53636  53.2196 332.2979 0001243  83.2065 276.9068 15.08831222 58395,6917.907,95.438,540.632,538.912,0.0
53636.0,STARLINK-4586,PAYLOAD,2023-09-15 11:57:51,15.08841906,0.0001328,53.219,331.999,103.5616,256.5524,7.7935e-06,-1.64e-06,0.0,0 STARLINK-4586,1 53636U 22104BA  23258.49850927 -.00000164  00000-0  77935-5 0  9994,2 53636  53.2190 331.9990 0001328 103.5616 256.5524 15.08841906 59426,6917.875,95.437,540.658,538.821,0.0
53636.0,STARLINK-4586,PAYLOAD,2023-09-16 10:13:15,15.08841154,0.0001379,53.2183,327.8366,74.8528,285.2617,0.00038328,5.817e-05,0.0,0 STARLINK-4586,1 53636U 22104BA  23259.42587006  .00005817  00000-0  38328-3 0  9993,2 53636  53.2183 327.8366 0001379  74.8528 285.2617 15.08841154 59569,6917.877,95.437,540.696,538.788,0.0
53636.0,STARLINK-4586,PAYLOAD,2023-09-16 21:20:57,15.08845385,0.0001494,53.2173,325.7556,72.5697,287.5458,0.00034281,5.173e-05,0.0,0 STARLINK-4586,1 53636U 22104BA  23259.88955299  .00005173  00000-0  34281-3 0  9995,2 53636  53.2173 325.7556 0001494  72.5697 287.5458 15.08845385 58619,6917.864,95.437,540.762,538.695,0.0
53636.0,STARLINK-4586,PAYLOAD,2023-09-17 11:39:25,15.08850202,0.0001518,53.218,323.0795,81.1865,278.9299,0.00010305,1.353e-05,0.0,0 STARLINK-4586,1 53636U 22104BA  23260.48570760  .00001353  00000-0  10305-3 0  9996,2 53636  53.2180 323.0795 0001518  81.1865 278.9299 15.08850202 59727,6917.849,95.437,540.764,538.664,0.0
53636.0,STARLINK-4586,PAYLOAD,2023-09-18 09:54:48,15.0885803,0.000171,53.2179,318.9161,93.93,266.1888,-0.00031694,-5.331e-05,0.0,0 STARLINK-4586,1 53636U 22104BA  23261.41305918 -.00005331  00000-0 -31694-3 0  9997,2 53636  53.2179 318.9161 0001710  93.9300 266.1888 15.08858030 58846,6917.825,95.436,540.873,538.507,0.0
53636.0,STARLINK-4586,PAYLOAD,2023-09-18 11:30:11,15.08849191,0.000155,53.2175,318.6186,90.3127,269.8043,3.4729e-05,2.65e-06,0.0,0 STARLINK-4586,1 53636U 22104BA  23261.47930418  .00000265  00000-0  34729-4 0  9994,2 53636  53.2175 318.6186 0001550  90.3127 269.8043 15.08849191 59871,6917.852,95.437,540.79,538.645,0.0
53636.0,STARLINK-4586,PAYLOAD,2023-09-20 03:14:50,15.08840137,0.0001826,53.2176,311.1888,54.2017,305.9145,0.00027864,4.149e-05,0.0,0 STARLINK-4586,1 53636U 22104BA  23263.13530649  .00004149  00000-0  27864-3 0  9997,2 53636  53.2176 311.1888 0001826  54.2017 305.9145 15.08840137 59104,6917.88,95.438,541.008,538.482,0.0
53636.0,STARLINK-4586,PAYLOAD,2023-09-20 09:36:22,15.08841358,0.0001669,53.2176,309.9956,86.0955,274.0228,2.5731e-05,1.21e-06,0.0,0 STARLINK-4586,1 53636U 22104BA  23263.40026469  .00000121  00000-0  25731-4 0  9995,2 53636  53.2176 309.9956 0001669  86.0955 274.0228 15.08841358 60166,6917.876,95.437,540.896,538.587,0.0
53636.0,STARLINK-4586,PAYLOAD,2023-09-21 09:27:10,15.08834407,0.0001643,53.218,305.5353,83.7534,276.3645,-9.5936e-05,-1.814e-05,0.0,0 STARLINK-4586,1 53636U 22104BA  23264.39387481 -.00001814  00000-0 -95936-4 0  9994,2 53636  53.2180 305.5353 0001643  83.7534 276.3645 15.08834407 59290,6917.897,95.438,540.899,538.626,0.0
53636.0,STARLINK-4586,PAYLOAD,2023-09-21 12:37:56,15.08837527,0.0001552,53.217,304.9389,82.4698,277.6471,-8.9423e-05,-1.711e-05,0.0,0 STARLINK-4586,1 53636U 22104BA  23264.52635260 -.00001711  00000-0 -89423-4 0  9990,2 53636  53.2170 304.9389 0001552  82.4698 277.6471 15.08837527 60331,6917.888,95.438,540.827,538.679,0.0
53636.0,STARLINK-4586,PAYLOAD,2023-09-22 09:17:57,15.08839091,0.0001525,53.217,301.0737,80.4117,279.7047,9.074e-05,1.156e-05,0.0,0 STARLINK-4586,1 53636U 22104BA  23265.38746828  .00001156  00000-0  90740-4 0  9993,2 53636  53.2170 301.0737 0001525  80.4117 279.7047 15.08839091 59440,6917.883,95.438,540.803,538.693,0.0
53636.0,STARLINK-4586,PAYLOAD,2023-09-22 10:53:20,15.08840475,0.0001523,53.217,300.776,81.2229,278.8936,0.00010012,1.306e-05,0.0,0 STARLINK-4586,1 53636U 22104BA  23265.45370720  .00001306  00000-0  10012-3 0  9995,2 53636  53.2170 300.7760 0001523  81.2229 278.8936 15.08840475 60473,6917.879,95.438,540.798,538.69,0.0
53636.0,STARLINK-4586,PAYLOAD,2023-09-22 23:36:25,15.08832941,0.000146,53.217,298.3965,92.3964,267.7195,7.7891e-05,9.52e-06,0.0,0 STARLINK-4586,1 53636U 22104BA  23265.98363377  .00000952  00000-0  77891-4 0  9998,2 53636  53.2170 298.3965 0001460  92.3964 267.7195 15.08832941 59539,6917.902,95.438,540.777,538.757,0.0
53636.0,STARLINK-4586,PAYLOAD,2023-09-23 09:08:44,15.08839857,0.0001496,53.217,296.6124,93.2011,266.9152,0.00013056,1.79e-05,0.0,0 STARLINK-4586,1 53636U 22104BA  23266.38106919  .00001790  00000-0  13056-3 0  9993,2 53636  53.2170 296.6124 0001496  93.2011 266.9152 15.08839857 59592,6917.881,95.438,540.781,538.711,0.0
53636.0,STARLINK-4586,PAYLOAD,2023-09-24 02:37:59,15.08836624,0.0001561,53.2165,293.341,99.4057,260.7112,-1.8848e-05,-5.88e-06,0.0,0 STARLINK-4586,1 53636U 22104BA  23267.10971768 -.00000588  00000-0 -18848-4 0  9997,2 53636  53.2165 293.3410 0001561  99.4057 260.7112 15.08836624 59709,6917.891,95.438,540.836,538.676,0.0
53636.0,STARLINK-4586,PAYLOAD,2023-09-24 10:34:55,15.08839113,0.0001442,53.217,291.8534,95.274,264.8417,-5.9224e-06,-3.82e-06,0.0,0 STARLINK-4586,1 53636U 22104BA  23267.44091611 -.00000382  00000-0 -59224-5 0  9990,2 53636  53.2170 291.8534 0001442  95.2740 264.8417 15.08839113 60774,6917.883,95.438,540.746,538.751,0.0
53636.0,STARLINK-4586,PAYLOAD,2023-09-25 08:50:18,15.08845803,0.000136,53.217,287.6935,87.402,272.7128,9.4464e-05,1.216e-05,0.0,0 STARLINK-4586,1 53636U 22104BA  23268.36827135  .00001216  00000-0  94464-4 0  9999,2 53636  53.2170 287.6935 0001360  87.4020 272.7128 15.08845803 59896,6917.863,95.437,540.668,538.787,0.0
53636.0,STARLINK-4586,PAYLOAD,2023-09-25 10:25:41,15.088463,0.0001366,53.2167,287.394,89.3165,270.7984,0.00010461,1.378e-05,0.0,0 STARLINK-4586,1 53636U 22104BA  23268.43451064  .00001378  00000-0  10461-3 0  9994,2 53636  53.2167 287.3940 0001366  89.3165 270.7984 15.08846300 60929,6917.861,95.437,540.671,538.781,0.0
53636.0,STARLINK-4586,PAYLOAD,2023-09-25 18:22:37,15.08844556,0.0001401,53.2169,285.9058,94.4107,265.7046,6.8761e-05,8.07e-06,0.0,0 STARLINK-4586,1 53636U 22104BA  23268.76571178  .00000807  00000-0  68761-4 0  9992,2 53636  53.2169 285.9058 0001401  94.4107 265.7046 15.08844556 60977,6917.866,95.437,540.701,538.762,0.0
53636.0,STARLINK-4586,PAYLOAD,2023-09-26 08:41:05,15.08848141,0.0001387,53.2167,283.2312,91.871,268.2441,0.00015539,2.186e-05,0.0,0 STARLINK-4586,1 53636U 22104BA  23269.36186773  .00002186  00000-0  15539-3 0  9998,2 53636  53.2167 283.2312 0001387  91.8710 268.2441 15.08848141 61065,6917.856,95.437,540.68,538.761,0.0
53636.0,STARLINK-4586,PAYLOAD,2023-09-27 00:34:57,15.0884147,0.0001446,53.2177,280.2568,92.0772,268.0386,1.1638e-06,-2.69e-06,0.0,0 STARLINK-4586,1 53636U 22104BA  23270.02427638 -.00000269  00000-0  11638-5 0  9990,2 53636  53.2177 280.2568 0001446  92.0772 268.0386 15.08841470 60145,6917.876,95.437,540.741,538.741,0.0
53636.0,STARLINK-4586,PAYLOAD,2023-09-27 08:31:53,15.08843728,0.0001495,53.2175,278.77,86.0827,274.0336,3.2684e-06,-2.36e-06,0.0,0 STARLINK-4586,1 53636U 22104BA  23270.35547533 -.00000236  00000-0  32684-5 0  9991,2 53636  53.2175 278.7700 0001495  86.0827 274.0336 15.08843728 61210,6917.869,95.437,540.768,538.7,0.0
53636.0,STARLINK-4586,PAYLOAD,2023-09-28 00:25:45,15.08835981,0.0001644,53.2171,275.7972,89.0797,271.0383,-2.6386e-05,-7.08e-06,0.0,0 STARLINK-4586,1 53636U 22104BA  23271.01788225 -.00000708  00000-0 -26386-4 0  9996,2 53636  53.2171 275.7972 0001644  89.0797 271.0383 15.08835981 60297,6917.893,95.438,540.895,538.62,0.0
53636.0,STARLINK-4586,PAYLOAD,2023-09-28 05:11:54,15.08836332,0.0001561,53.2171,274.9057,88.4042,271.7129,-1.7014e-05,-5.59e-06,0.0,0 STARLINK-4586,1 53636U 22104BA  23271.21660185 -.00000559  00000-0 -17014-4 0  9994,2 53636  53.2171 274.9057 0001561  88.4042 271.7129 15.08836332 61349,6917.892,95.438,540.836,538.677,0.0
53636.0,STARLINK-4586,PAYLOAD,2023-09-29 06:38:04,15.0883772,0.0001666,53.2164,270.1472,88.032,272.0863,0.00010776,1.427e-05,0.0,0 STARLINK-4586,1 53636U 22104BA  23272.27644083  .00001427  00000-0  10776-3 0  9990,2 53636  53.2164 270.1472 0001666  88.0320 272.0863 15.08837720 60486,6917.887,95.438,540.905,538.6,0.0
53636.0,STARLINK-4586,PAYLOAD,2023-09-30 04:53:28,15.08842539,0.0001691,53.2176,265.984,97.1202,262.9983,0.00012953,1.774e-05,0.0,0 STARLINK-4586,1 53636U 22104BA  23273.20379806  .00001774  00000-0  12953-3 0  9996,2 53636  53.2176 265.9840 0001691  97.1202 262.9983 15.08842539 61642,6917.873,95.437,540.907,538.568,0.0
53636.0,STARLINK-4586,PAYLOAD,2023-09-30 16:01:10,15.08837778,0.0001676,53.2169,263.9012,93.6361,266.4823,7.7395e-05,9.44e-06,0.0,0 STARLINK-4586,1 53636U 22104BA  23273.66748232  .00000944  00000-0  77395-4 0  9999,2 53636  53.2169 263.9012 0001676  93.6361 266.4823 15.08837778 60698,6917.887,95.438,540.912,538.593,0.0
53636.0,STARLINK-4586,PAYLOAD,2023-10-01 06:19:38,15.08839211,0.0001562,53.2174,261.2306,95.78,264.337,7.4807e-05,9.03e-06,0.0,0 STARLINK-4586,1 53636U 22104BA  23274.26364446  .00000903  00000-0  74807-4 0  9997,2 53636  53.2174 261.2306 0001562  95.7800 264.3370 15.08839211 61808,6917.883,95.438,540.828,538.667,0.0
